start=new Date('2022-01-27T00:00:00.000Z').valueOf();
sats=[{"RCS_SIZE":"LARGE","TLE_LINE1":"1 46169U 20057BE  22026.58192124  .00000066  00000-0  23700-4 0  9992","APOAPSIS":"550.951","INCLINATION":"52.9990","SITE":"AFETR","ARG_OF_PERICENTER":"81.6810","ECCENTRICITY":"0.00017950","TLE_LINE2":"2 46169  52.9990 224.3204 0001795  81.6810 278.4382 15.05586570 79489","NORAD_CAT_ID":"46169","PERIAPSIS":"548.464","EPHEMERIS_TYPE":"0","SEMIMAJOR_AXIS":"6927.843","MEAN_ANOMALY":"278.4382","GP_ID":"194678225","MEAN_ELEMENT_THEORY":"SGP4","DECAY_DATE":null,"REF_FRAME":"TEME","FILE":"3284266","MEAN_MOTION":"15.05586570","TIME_SYSTEM":"UTC","LAUNCH_DATE":"2020-08-18","MEAN_MOTION_DDOT":"0.0000000000000","OBJECT_NAME":"STARLINK-1628","RA_OF_ASC_NODE":"224.3204","CENTER_NAME":"EARTH","OBJECT_TYPE":"PAYLOAD","BSTAR":"0.00002370000000","REV_AT_EPOCH":"7948","PERIOD":"95.644","EPOCH":"2022-01-26T13:57:57.995136","OBJECT_ID":"2020-057BE","MEAN_MOTION_DOT":"0.00000066","COUNTRY_CODE":"US","CLASSIFICATION_TYPE":"U","ELEMENT_SET_NO":"999"},{"MEAN_MOTION_DOT":"0.00004378","COUNTRY_CODE":"US","OBJECT_ID":"2020-057BG","ELEMENT_SET_NO":"999","CLASSIFICATION_TYPE":"U","OBJECT_TYPE":"PAYLOAD","BSTAR":"0.00031265000000","REV_AT_EPOCH":"8047","PERIOD":"95.592","EPOCH":"2022-01-26T17:59:07.325376","LAUNCH_DATE":"2020-08-18","MEAN_MOTION":"15.06398894","FILE":"3284305","TIME_SYSTEM":"UTC","RA_OF_ASC_NODE":"203.5763","CENTER_NAME":"EARTH","OBJECT_NAME":"STARLINK-1633","MEAN_MOTION_DDOT":"0.0000000000000","MEAN_ELEMENT_THEORY":"SGP4","GP_ID":"194683974","REF_FRAME":"TEME","DECAY_DATE":null,"PERIAPSIS":"545.844","SEMIMAJOR_AXIS":"6925.352","EPHEMERIS_TYPE":"0","MEAN_ANOMALY":"287.7624","NORAD_CAT_ID":"46171","ARG_OF_PERICENTER":"72.3581","APOAPSIS":"548.590","INCLINATION":"53.0524","SITE":"AFETR","ECCENTRICITY":"0.00019830","TLE_LINE2":"2 46171  53.0524 203.5763 0001983  72.3581 287.7624 15.06398894 80471","TLE_LINE1":"1 46171U 20057BG  22026.74939034  .00004378  00000-0  31265-3 0  9996","RCS_SIZE":"LARGE"},{"FILE":"3284266","MEAN_MOTION":"15.06400549","TIME_SYSTEM":"UTC","LAUNCH_DATE":"2020-08-18","OBJECT_NAME":"STARLINK-1635","MEAN_MOTION_DDOT":"0.0000000000000","RA_OF_ASC_NODE":"204.7158","CENTER_NAME":"EARTH","GP_ID":"194678727","MEAN_ELEMENT_THEORY":"SGP4","DECAY_DATE":null,"REF_FRAME":"TEME","OBJECT_ID":"2020-057BH","MEAN_MOTION_DOT":"0.00001309","COUNTRY_CODE":"US","CLASSIFICATION_TYPE":"U","ELEMENT_SET_NO":"999","BSTAR":"0.00010675000000","OBJECT_TYPE":"PAYLOAD","REV_AT_EPOCH":"8103","PERIOD":"95.592","EPOCH":"2022-01-26T11:58:12.324864","APOAPSIS":"548.931","INCLINATION":"53.0541","SITE":"AFETR","ARG_OF_PERICENTER":"76.8960","ECCENTRICITY":"0.00024830","TLE_LINE2":"2 46172  53.0541 204.7158 0002483  76.8960 283.2306 15.06400549 81030","RCS_SIZE":"LARGE","TLE_LINE1":"1 46172U 20057BH  22026.49875376  .00001309  00000-0  10675-3 0  9990","PERIAPSIS":"545.492","SEMIMAJOR_AXIS":"6925.347","EPHEMERIS_TYPE":"0","MEAN_ANOMALY":"283.2306","NORAD_CAT_ID":"46172"},{"RCS_SIZE":"LARGE","TLE_LINE1":"1 46173U 20057BJ  22026.54481955  .00001811  00000-0  14048-3 0  9999","ECCENTRICITY":"0.00017980","TLE_LINE2":"2 46173  53.0538 224.5038 0001798  73.2275 286.8911 15.06399506 79502","APOAPSIS":"548.460","INCLINATION":"53.0538","SITE":"AFETR","ARG_OF_PERICENTER":"73.2275","NORAD_CAT_ID":"46173","EPHEMERIS_TYPE":"0","SEMIMAJOR_AXIS":"6925.350","MEAN_ANOMALY":"286.8911","PERIAPSIS":"545.970","REF_FRAME":"TEME","DECAY_DATE":null,"GP_ID":"194677975","MEAN_ELEMENT_THEORY":"SGP4","OBJECT_NAME":"STARLINK-1640","MEAN_MOTION_DDOT":"0.0000000000000","RA_OF_ASC_NODE":"224.5038","CENTER_NAME":"EARTH","TIME_SYSTEM":"UTC","FILE":"3284266","MEAN_MOTION":"15.06399506","LAUNCH_DATE":"2020-08-18","REV_AT_EPOCH":"7950","PERIOD":"95.592","EPOCH":"2022-01-26T13:04:32.409120","OBJECT_TYPE":"PAYLOAD","BSTAR":"0.00014048000000","ELEMENT_SET_NO":"999","CLASSIFICATION_TYPE":"U","OBJECT_ID":"2020-057BJ","COUNTRY_CODE":"US","MEAN_MOTION_DOT":"0.00001811"},{"NORAD_CAT_ID":"46174","PERIAPSIS":"545.930","MEAN_ANOMALY":"285.0400","EPHEMERIS_TYPE":"0","SEMIMAJOR_AXIS":"6925.367","TLE_LINE1":"1 46174U 20057BK  22026.55218441  .00001725  00000-0  13469-3 0  9999","RCS_SIZE":"LARGE","ARG_OF_PERICENTER":"75.0797","SITE":"AFETR","INCLINATION":"53.0543","APOAPSIS":"548.534","TLE_LINE2":"2 46174  53.0543 224.4656 0001880  75.0797 285.0400 15.06393862 79508","ECCENTRICITY":"0.00018800","BSTAR":"0.00013469000000","OBJECT_TYPE":"PAYLOAD","EPOCH":"2022-01-26T13:15:08.733024","PERIOD":"95.593","REV_AT_EPOCH":"7950","MEAN_MOTION_DOT":"0.00001725","COUNTRY_CODE":"US","OBJECT_ID":"2020-057BK","CLASSIFICATION_TYPE":"U","ELEMENT_SET_NO":"999","MEAN_ELEMENT_THEORY":"SGP4","GP_ID":"194677726","DECAY_DATE":null,"REF_FRAME":"TEME","LAUNCH_DATE":"2020-08-18","FILE":"3284266","MEAN_MOTION":"15.06393862","TIME_SYSTEM":"UTC","CENTER_NAME":"EARTH","RA_OF_ASC_NODE":"224.4656","OBJECT_NAME":"STARLINK-1641","MEAN_MOTION_DDOT":"0.0000000000000"},{"RCS_SIZE":"LARGE","TLE_LINE1":"1 46325U 20062A   22026.82909377 -.00000149  00000-0  89087-5 0  9999","APOAPSIS":"548.452","INCLINATION":"53.0539","SITE":"AFETR","ARG_OF_PERICENTER":"67.8715","ECCENTRICITY":"0.00017650","TLE_LINE2":"2 46325  53.0539 238.2278 0001765  67.8715 292.2461 15.06394720 79012","NORAD_CAT_ID":"46325","PERIAPSIS":"546.007","SEMIMAJOR_AXIS":"6925.365","EPHEMERIS_TYPE":"0","MEAN_ANOMALY":"292.2461","GP_ID":"194687164","MEAN_ELEMENT_THEORY":"SGP4","REF_FRAME":"TEME","DECAY_DATE":null,"TIME_SYSTEM":"UTC","FILE":"3284447","MEAN_MOTION":"15.06394720","LAUNCH_DATE":"2020-09-03","OBJECT_NAME":"STARLINK-1734","MEAN_MOTION_DDOT":"0.0000000000000","RA_OF_ASC_NODE":"238.2278","CENTER_NAME":"EARTH","BSTAR":"0.00000890870000","OBJECT_TYPE":"PAYLOAD","REV_AT_EPOCH":"7901","PERIOD":"95.592","EPOCH":"2022-01-26T19:53:53.701728","OBJECT_ID":"2020-062A","MEAN_MOTION_DOT":"-0.00000149","COUNTRY_CODE":"US","ELEMENT_SET_NO":"999","CLASSIFICATION_TYPE":"U"},{"DECAY_DATE":null,"REF_FRAME":"TEME","MEAN_ELEMENT_THEORY":"SGP4","GP_ID":"194680742","CENTER_NAME":"EARTH","RA_OF_ASC_NODE":"285.1133","MEAN_MOTION_DDOT":"0.0000000000000","OBJECT_NAME":"STARLINK-1654","LAUNCH_DATE":"2020-09-03","MEAN_MOTION":"15.06386214","FILE":"3284266","TIME_SYSTEM":"UTC","EPOCH":"2022-01-26T09:44:06.773280","PERIOD":"95.593","REV_AT_EPOCH":"7773","BSTAR":"-0.00016834000000","OBJECT_TYPE":"PAYLOAD","ELEMENT_SET_NO":"999","CLASSIFICATION_TYPE":"U","COUNTRY_CODE":"US","MEAN_MOTION_DOT":"-0.00002788","OBJECT_ID":"2020-062B","TLE_LINE1":"1 46326U 20062B   22026.40563395 -.00002788  00000-0 -16834-3 0  9990","RCS_SIZE":"LARGE","TLE_LINE2":"2 46326  53.0543 285.1133 0002548  70.6413 289.4852 15.06386214 77734","ECCENTRICITY":"0.00025480","ARG_OF_PERICENTER":"70.6413","INCLINATION":"53.0543","SITE":"AFETR","APOAPSIS":"549.020","NORAD_CAT_ID":"46326","MEAN_ANOMALY":"289.4852","EPHEMERIS_TYPE":"0","SEMIMAJOR_AXIS":"6925.391","PERIAPSIS":"545.491"},{"RCS_SIZE":"LARGE","TLE_LINE1":"1 46327U 20062C   22026.45080969 -.00000500  00000-0 -14674-4 0  9998","TLE_LINE2":"2 46327  53.0553 284.9321 0001853  62.6697 297.4481 15.06404832 77739","ECCENTRICITY":"0.00018530","SITE":"AFETR","INCLINATION":"53.0553","APOAPSIS":"548.482","ARG_OF_PERICENTER":"62.6697","NORAD_CAT_ID":"46327","MEAN_ANOMALY":"297.4481","EPHEMERIS_TYPE":"0","SEMIMAJOR_AXIS":"6925.334","PERIAPSIS":"545.915","REF_FRAME":"TEME","DECAY_DATE":null,"GP_ID":"194680992","MEAN_ELEMENT_THEORY":"SGP4","OBJECT_NAME":"STARLINK-1673","MEAN_MOTION_DDOT":"0.0000000000000","CENTER_NAME":"EARTH","RA_OF_ASC_NODE":"284.9321","MEAN_MOTION":"15.06404832","FILE":"3284266","TIME_SYSTEM":"UTC","LAUNCH_DATE":"2020-09-03","PERIOD":"95.592","EPOCH":"2022-01-26T10:49:09.957216","REV_AT_EPOCH":"7773","OBJECT_TYPE":"PAYLOAD","BSTAR":"-0.00001467400000","ELEMENT_SET_NO":"999","CLASSIFICATION_TYPE":"U","OBJECT_ID":"2020-062C","COUNTRY_CODE":"US","MEAN_MOTION_DOT":"-0.00000500"},{"NORAD_CAT_ID":"46328","PERIAPSIS":"546.079","SEMIMAJOR_AXIS":"6925.345","EPHEMERIS_TYPE":"0","MEAN_ANOMALY":"299.7434","RCS_SIZE":"LARGE","TLE_LINE1":"1 46328U 20062D   22026.36420067  .00000991  00000-0  85411-4 0  9995","APOAPSIS":"548.342","SITE":"AFETR","INCLINATION":"53.0548","ARG_OF_PERICENTER":"60.3718","ECCENTRICITY":"0.00016340","TLE_LINE2":"2 46328  53.0548 265.3116 0001634  60.3718 299.7434 15.06401090 78002","BSTAR":"0.00008541100000","OBJECT_TYPE":"PAYLOAD","REV_AT_EPOCH":"7800","PERIOD":"95.592","EPOCH":"2022-01-26T08:44:26.937888","OBJECT_ID":"2020-062D","COUNTRY_CODE":"US","MEAN_MOTION_DOT":"0.00000991","CLASSIFICATION_TYPE":"U","ELEMENT_SET_NO":"999","GP_ID":"194679241","MEAN_ELEMENT_THEORY":"SGP4","REF_FRAME":"TEME","DECAY_DATE":null,"MEAN_MOTION":"15.06401090","FILE":"3284266","TIME_SYSTEM":"UTC","LAUNCH_DATE":"2020-09-03","OBJECT_NAME":"STARLINK-1686","MEAN_MOTION_DDOT":"0.0000000000000","RA_OF_ASC_NODE":"265.3116","CENTER_NAME":"EARTH"},{"OBJECT_TYPE":"PAYLOAD","BSTAR":"-0.00006668800000","REV_AT_EPOCH":"7800","PERIOD":"95.592","EPOCH":"2022-01-26T09:32:13.384032","OBJECT_ID":"2020-062E","MEAN_MOTION_DOT":"-0.00001275","COUNTRY_CODE":"US","ELEMENT_SET_NO":"999","CLASSIFICATION_TYPE":"U","GP_ID":"194679991","MEAN_ELEMENT_THEORY":"SGP4","REF_FRAME":"TEME","DECAY_DATE":null,"TIME_SYSTEM":"UTC","FILE":"3284266","MEAN_MOTION":"15.06397745","LAUNCH_DATE":"2020-09-03","OBJECT_NAME":"STARLINK-1695","MEAN_MOTION_DDOT":"0.0000000000000","RA_OF_ASC_NODE":"265.1559","CENTER_NAME":"EARTH","NORAD_CAT_ID":"46329","PERIAPSIS":"546.027","EPHEMERIS_TYPE":"0","SEMIMAJOR_AXIS":"6925.355","MEAN_ANOMALY":"292.6282","RCS_SIZE":"LARGE","TLE_LINE1":"1 46329U 20062E   22026.39737713 -.00001275  00000-0 -66688-4 0  9991","APOAPSIS":"548.414","SITE":"AFETR","INCLINATION":"53.0546","ARG_OF_PERICENTER":"67.4889","ECCENTRICITY":"0.00017240","TLE_LINE2":"2 46329  53.0546 265.1559 0001724  67.4889 292.6282 15.06397745 78001"}];
